start=new Date('2022-12-07T00:00:00.000Z').valueOf();
sats=[{"NORAD_CAT_ID":"46333","MEAN_ELEMENT_THEORY":"SGP4","MEAN_MOTION_DDOT":"0.0000000000000","REF_FRAME":"TEME","OBJECT_ID":"2020-062J","GP_ID":"219692962","PERIAPSIS":"545.816","EPHEMERIS_TYPE":"0","LAUNCH_DATE":"2020-09-03","APOAPSIS":"548.636","EPOCH":"2022-12-06T15:59:09.257568","ECCENTRICITY":"0.00020360","CLASSIFICATION_TYPE":"U","MEAN_MOTION":"15.06395984","ARG_OF_PERICENTER":"46.8282","OBJECT_NAME":"STARLINK-1723","COUNTRY_CODE":"US","CENTER_NAME":"EARTH","INCLINATION":"53.0543","OBJECT_TYPE":"PAYLOAD","TIME_SYSTEM":"UTC","TLE_LINE2":"2 46333  53.0543 314.3508 0002036  46.8282 313.2876 15.06395984125093","DECAY_DATE":null,"RCS_SIZE":"LARGE","PERIOD":"95.592","FILE":"3683274","TLE_LINE1":"1 46333U 20062J   22340.66607937 -.00001252  00000-0 -65170-4 0  9999","ELEMENT_SET_NO":"999","BSTAR":"-0.00006517000000","RA_OF_ASC_NODE":"314.3508","REV_AT_EPOCH":"12509","SITE":"AFETR","MEAN_ANOMALY":"313.2876","SEMIMAJOR_AXIS":"6925.361","MEAN_MOTION_DOT":"-0.00001252"},{"OBJECT_NAME":"STARLINK-1725","EPOCH":"2022-12-06T14:26:19.403808","ECCENTRICITY":"0.00019230","CLASSIFICATION_TYPE":"U","ARG_OF_PERICENTER":"59.3589","MEAN_MOTION":"15.06396601","APOAPSIS":"548.556","PERIAPSIS":"545.892","EPHEMERIS_TYPE":"0","LAUNCH_DATE":"2020-09-03","OBJECT_ID":"2020-062K","GP_ID":"219693212","MEAN_ELEMENT_THEORY":"SGP4","REF_FRAME":"TEME","MEAN_MOTION_DDOT":"0.0000000000000","NORAD_CAT_ID":"46334","MEAN_MOTION_DOT":"0.00000196","MEAN_ANOMALY":"300.7590","SEMIMAJOR_AXIS":"6925.359","RA_OF_ASC_NODE":"294.9288","REV_AT_EPOCH":"12536","SITE":"AFETR","PERIOD":"95.592","FILE":"3683274","ELEMENT_SET_NO":"999","TLE_LINE1":"1 46334U 20062K   22340.60161347  .00000196  00000-0  32083-4 0  9995","BSTAR":"0.00003208300000","TIME_SYSTEM":"UTC","TLE_LINE2":"2 46334  53.0567 294.9288 0001923  59.3589 300.7590 15.06396601125362","RCS_SIZE":"LARGE","DECAY_DATE":null,"OBJECT_TYPE":"PAYLOAD","CENTER_NAME":"EARTH","INCLINATION":"53.0567","COUNTRY_CODE":"US"},{"MEAN_MOTION_DOT":"-0.00003485","SEMIMAJOR_AXIS":"6925.368","MEAN_ANOMALY":"313.7675","REV_AT_EPOCH":"12509","SITE":"AFETR","RA_OF_ASC_NODE":"314.5321","TLE_LINE1":"1 46335U 20062L   22340.62921702 -.00003485  00000-0 -21516-3 0  9991","ELEMENT_SET_NO":"999","BSTAR":"-0.00021516000000","PERIOD":"95.593","FILE":"3683274","RCS_SIZE":"LARGE","DECAY_DATE":null,"TIME_SYSTEM":"UTC","TLE_LINE2":"2 46335  53.0532 314.5321 0002068  46.3485 313.7675 15.06393778125094","OBJECT_TYPE":"PAYLOAD","INCLINATION":"53.0532","CENTER_NAME":"EARTH","COUNTRY_CODE":"US","OBJECT_NAME":"STARLINK-1727","ECCENTRICITY":"0.00020680","ARG_OF_PERICENTER":"46.3485","CLASSIFICATION_TYPE":"U","MEAN_MOTION":"15.06393778","EPOCH":"2022-12-06T15:06:04.350528","APOAPSIS":"548.665","LAUNCH_DATE":"2020-09-03","PERIAPSIS":"545.800","EPHEMERIS_TYPE":"0","OBJECT_ID":"2020-062L","GP_ID":"219693962","MEAN_ELEMENT_THEORY":"SGP4","MEAN_MOTION_DDOT":"0.0000000000000","REF_FRAME":"TEME","NORAD_CAT_ID":"46335"},{"APOAPSIS":"548.574","OBJECT_NAME":"STARLINK-1738","ECCENTRICITY":"0.00019880","CLASSIFICATION_TYPE":"U","ARG_OF_PERICENTER":"55.7644","MEAN_MOTION":"15.06405216","EPOCH":"2022-12-06T08:30:38.401632","MEAN_ELEMENT_THEORY":"SGP4","MEAN_MOTION_DDOT":"0.0000000000000","REF_FRAME":"TEME","NORAD_CAT_ID":"46336","LAUNCH_DATE":"2020-09-03","PERIAPSIS":"545.821","EPHEMERIS_TYPE":"0","GP_ID":"219663748","OBJECT_ID":"2020-062M","REV_AT_EPOCH":"12532","SITE":"AFETR","RA_OF_ASC_NODE":"295.7456","TLE_LINE1":"1 46336U 20062M   22340.35461113  .00000568  00000-0  57025-4 0  9999","BSTAR":"0.00005702500000","ELEMENT_SET_NO":"999","PERIOD":"95.592","FILE":"3683104","MEAN_MOTION_DOT":"0.00000568","SEMIMAJOR_AXIS":"6925.333","MEAN_ANOMALY":"304.3533","INCLINATION":"53.0558","CENTER_NAME":"EARTH","COUNTRY_CODE":"US","DECAY_DATE":null,"RCS_SIZE":"LARGE","TIME_SYSTEM":"UTC","TLE_LINE2":"2 46336  53.0558 295.7456 0001988  55.7644 304.3533 15.06405216125329","OBJECT_TYPE":"PAYLOAD"},{"LAUNCH_DATE":"2020-09-03","PERIAPSIS":"545.853","EPHEMERIS_TYPE":"0","OBJECT_ID":"2020-062N","GP_ID":"219663983","MEAN_ELEMENT_THEORY":"SGP4","MEAN_MOTION_DDOT":"0.0000000000000","REF_FRAME":"TEME","NORAD_CAT_ID":"46337","OBJECT_NAME":"STARLINK-1750","ECCENTRICITY":"0.00019760","CLASSIFICATION_TYPE":"U","MEAN_MOTION":"15.06397377","ARG_OF_PERICENTER":"52.5103","EPOCH":"2022-12-06T13:38:29.719392","APOAPSIS":"548.590","DECAY_DATE":null,"RCS_SIZE":"LARGE","TIME_SYSTEM":"UTC","TLE_LINE2":"2 46337  53.0544 294.8013 0001976  52.5103 307.6066 15.06397377125365","OBJECT_TYPE":"PAYLOAD","INCLINATION":"53.0544","CENTER_NAME":"EARTH","COUNTRY_CODE":"US","MEAN_MOTION_DOT":"-0.00000881","SEMIMAJOR_AXIS":"6925.357","MEAN_ANOMALY":"307.6066","REV_AT_EPOCH":"12536","SITE":"AFETR","RA_OF_ASC_NODE":"294.8013","TLE_LINE1":"1 46337U 20062N   22340.56839953 -.00000881  00000-0 -40238-4 0  9992","BSTAR":"-0.00004023800000","ELEMENT_SET_NO":"999","PERIOD":"95.592","FILE":"3683104"},{"TLE_LINE2":"2 46338  53.0553 315.7735 0001821  61.1945 298.9226 15.06403108125044","TIME_SYSTEM":"UTC","DECAY_DATE":null,"RCS_SIZE":"LARGE","OBJECT_TYPE":"PAYLOAD","CENTER_NAME":"EARTH","INCLINATION":"53.0553","COUNTRY_CODE":"US","MEAN_MOTION_DOT":"0.00001423","MEAN_ANOMALY":"298.9226","SEMIMAJOR_AXIS":"6925.339","RA_OF_ASC_NODE":"315.7735","SITE":"AFETR","REV_AT_EPOCH":"12504","FILE":"3683104","PERIOD":"95.592","TLE_LINE1":"1 46338U 20062P   22340.35276677  .00001423  00000-0  11439-3 0  9999","ELEMENT_SET_NO":"999","BSTAR":"0.00011439000000","EPHEMERIS_TYPE":"0","PERIAPSIS":"545.943","LAUNCH_DATE":"2020-09-03","OBJECT_ID":"2020-062P","GP_ID":"219663231","REF_FRAME":"TEME","MEAN_MOTION_DDOT":"0.0000000000000","MEAN_ELEMENT_THEORY":"SGP4","NORAD_CAT_ID":"46338","OBJECT_NAME":"STARLINK-1752","EPOCH":"2022-12-06T08:27:59.048928","CLASSIFICATION_TYPE":"U","ARG_OF_PERICENTER":"61.1945","MEAN_MOTION":"15.06403108","ECCENTRICITY":"0.00018210","APOAPSIS":"548.465"},{"RA_OF_ASC_NODE":"314.4069","REV_AT_EPOCH":"12508","SITE":"AFETR","PERIOD":"95.592","FILE":"3683274","ELEMENT_SET_NO":"999","TLE_LINE1":"1 46340U 20062R   22340.65871432  .00000286  00000-0  38082-4 0  9995","BSTAR":"0.00003808200000","MEAN_MOTION_DOT":"0.00000286","MEAN_ANOMALY":"297.2774","SEMIMAJOR_AXIS":"6925.361","CENTER_NAME":"EARTH","INCLINATION":"53.0575","COUNTRY_CODE":"US","TIME_SYSTEM":"UTC","TLE_LINE2":"2 46340  53.0575 314.4069 0001877  62.8406 297.2774 15.06395797125086","RCS_SIZE":"LARGE","DECAY_DATE":null,"OBJECT_TYPE":"PAYLOAD","APOAPSIS":"548.526","OBJECT_NAME":"STARLINK-1759","EPOCH":"2022-12-06T15:48:32.917248","ECCENTRICITY":"0.00018770","CLASSIFICATION_TYPE":"U","ARG_OF_PERICENTER":"62.8406","MEAN_MOTION":"15.06395797","MEAN_ELEMENT_THEORY":"SGP4","MEAN_MOTION_DDOT":"0.0000000000000","REF_FRAME":"TEME","NORAD_CAT_ID":"46340","PERIAPSIS":"545.927","EPHEMERIS_TYPE":"0","LAUNCH_DATE":"2020-09-03","OBJECT_ID":"2020-062R","GP_ID":"219693463"},{"OBJECT_TYPE":"PAYLOAD","DECAY_DATE":null,"RCS_SIZE":"LARGE","TLE_LINE2":"2 46341  53.0553 294.6692 0001973  46.3498 313.7655 15.06398640125373","TIME_SYSTEM":"UTC","COUNTRY_CODE":"US","INCLINATION":"53.0553","CENTER_NAME":"EARTH","SEMIMAJOR_AXIS":"6925.353","MEAN_ANOMALY":"313.7655","MEAN_MOTION_DOT":"0.00000099","TLE_LINE1":"1 46341U 20062S   22340.59789057  .00000099  00000-0  25551-4 0  9999","ELEMENT_SET_NO":"999","BSTAR":"0.00002555100000","FILE":"3683274","PERIOD":"95.592","SITE":"AFETR","REV_AT_EPOCH":"12537","RA_OF_ASC_NODE":"294.6692","GP_ID":"219693698","OBJECT_ID":"2020-062S","LAUNCH_DATE":"2020-09-03","EPHEMERIS_TYPE":"0","PERIAPSIS":"545.851","NORAD_CAT_ID":"46341","MEAN_MOTION_DDOT":"0.0000000000000","REF_FRAME":"TEME","MEAN_ELEMENT_THEORY":"SGP4","CLASSIFICATION_TYPE":"U","ARG_OF_PERICENTER":"46.3498","MEAN_MOTION":"15.06398640","ECCENTRICITY":"0.00019730","EPOCH":"2022-12-06T14:20:57.745248","OBJECT_NAME":"STARLINK-1760","APOAPSIS":"548.584"},{"OBJECT_ID":"2020-062T","GP_ID":"219692963","PERIAPSIS":"546.113","EPHEMERIS_TYPE":"0","LAUNCH_DATE":"2020-09-03","NORAD_CAT_ID":"46342","MEAN_ELEMENT_THEORY":"SGP4","MEAN_MOTION_DDOT":"0.0000000000000","REF_FRAME":"TEME","EPOCH":"2022-12-06T15:27:18.723744","ECCENTRICITY":"0.00016010","CLASSIFICATION_TYPE":"U","ARG_OF_PERICENTER":"59.2356","MEAN_MOTION":"15.06397191","OBJECT_NAME":"STARLINK-1762","APOAPSIS":"548.331","OBJECT_TYPE":"PAYLOAD","TIME_SYSTEM":"UTC","TLE_LINE2":"2 46342  53.0558 314.4648 0001601  59.2356 300.8790 15.06397191125091","DECAY_DATE":null,"RCS_SIZE":"LARGE","COUNTRY_CODE":"US","CENTER_NAME":"EARTH","INCLINATION":"53.0558","MEAN_ANOMALY":"300.8790","SEMIMAJOR_AXIS":"6925.357","MEAN_MOTION_DOT":"-0.00000011","PERIOD":"95.592","FILE":"3683274","BSTAR":"0.00001814400000","TLE_LINE1":"1 46342U 20062T   22340.64396671 -.00000011  00000-0  18144-4 0  9997","ELEMENT_SET_NO":"999","RA_OF_ASC_NODE":"314.4648","REV_AT_EPOCH":"12509","SITE":"AFETR"},{"OBJECT_ID":"2020-062U","GP_ID":"219693213","LAUNCH_DATE":"2020-09-03","PERIAPSIS":"546.094","EPHEMERIS_TYPE":"0","NORAD_CAT_ID":"46343","MEAN_ELEMENT_THEORY":"SGP4","REF_FRAME":"TEME","MEAN_MOTION_DDOT":"0.0000000000000","ECCENTRICITY":"0.00016590","CLASSIFICATION_TYPE":"U","ARG_OF_PERICENTER":"66.6964","MEAN_MOTION":"15.06390288","EPOCH":"2022-12-06T21:41:30.162048","OBJECT_NAME":"STARLINK-1764","APOAPSIS":"548.392","OBJECT_TYPE":"PAYLOAD","RCS_SIZE":"LARGE","DECAY_DATE":null,"TIME_SYSTEM":"UTC","TLE_LINE2":"2 46343  53.0553 293.2854 0001659  66.6964 293.4199 15.06390288125416","COUNTRY_CODE":"US","INCLINATION":"53.0553","CENTER_NAME":"EARTH","SEMIMAJOR_AXIS":"6925.378","MEAN_ANOMALY":"293.4199","MEAN_MOTION_DOT":"-0.00000814","ELEMENT_SET_NO":"999","TLE_LINE1":"1 46343U 20062U   22340.90382132 -.00000814  00000-0 -35752-4 0  9990","BSTAR":"-0.00003575200000","PERIOD":"95.593","FILE":"3683274","REV_AT_EPOCH":"12541","SITE":"AFETR","RA_OF_ASC_NODE":"293.2854"}];
